COSMOS 2361             
1 25590U 98076A   24157.40014096  .00000090  00000+0  80749-4 0  9994
2 25590  82.9358  34.6940 0031854  12.3806 160.5521 13.73119271274890
COSMOS 2378             
1 26818U 01023A   24157.46875939  .00000080  00000+0  68802-4 0  9996
2 26818  82.9285  51.3405 0032038 315.0810 218.1194 13.74050147152975
COSMOS 2389             
1 27436U 02026A   24157.52246597  .00000091  00000+0  78149-4 0  9993
2 27436  82.9511 357.9048 0046641 167.7180 255.0495 13.75064634105181
COSMOS 2398             
1 27818U 03023A   24157.50621126  .00000095  00000+0  87444-4 0  9990
2 27818  82.9473 321.8350 0030604 212.9356 208.3892 13.72296552 52016
COSMOS 2407             
1 28380U 04028A   24157.58365929  .00000097  00000+0  83417-4 0  9993
2 28380  82.9606 263.9875 0039715 164.6530 206.0715 13.76212495997864
COSMOS 2414             
1 28521U 05002A   24157.54292614  .00000110  00000+0  79054-4 0  9997
2 28521  82.9505 244.5247 0038770 284.5177  75.1687 13.87776162980971
COSMOS 2429             
1 32052U 07038A   24157.61443856  .00000103  00000+0  90921-4 0  9994
2 32052  82.9822  32.4174 0039152 144.6035 215.7732 13.75054668839731
COSMOS 2454             
1 35635U 09039A   24157.48018041  .00000106  00000+0  73466-4 0  9994
2 35635  82.9573 229.5841 0018373 217.8315 152.9998 13.89804669754371
COSMOS 2463             
1 36519U 10017A   24157.55725336  .00000073  00000+0  64172-4 0  9991
2 36519  82.9613  74.5992 0036991  29.8904 143.2794 13.71560808706261
